COSMOS 2425 (716)       
1 29670U 06062A   21039.45396553  .00000083  00000-0  00000+0 0  9993
2 29670  64.8802 259.8075 0024936 349.7038 191.5144  2.13112981109911
COSMOS 2433 (720)       
1 32275U 07052A   21040.38789194 -.00000058  00000-0  00000-0 0  9993
2 32275  66.0412  21.0389 0005126 265.5328  91.4786  2.13104279103455
COSMOS 2432 (719)       
1 32276U 07052B   21040.31703266 -.00000057  00000-0  00000-0 0  9992
2 32276  66.0535  21.1340 0012078 319.8461 292.3825  2.13103590103456
COSMOS 2434 (721)       
1 32393U 07065A   21040.30848027  .00000079  00000-0  00000-0 0  9993
2 32393  64.4941 258.2971 0004580  75.2956 108.8262  2.13103085102165
COSMOS 2436 (723)       
1 32395U 07065C   21040.74078280  .00000075  00000-0  00000+0 0  9994
2 32395  64.5035 258.3357 0016135   5.9658 285.9548  2.13102999102100
COSMOS 2456 (730)       
1 36111U 09070A   21040.41086709 -.00000033  00000-0  00000-0 0  9997
2 36111  64.2563 137.9731 0003059 319.7148 115.2025  2.13099138 86838
COSMOS 2457 (733)       
1 36112U 09070B   21040.59544035 -.00000031  00000-0  00000+0 0  9995
2 36112  64.2385 137.8546 0005529 165.9662 173.8987  2.13101196 86835
COSMOS 2459 (731)       
1 36400U 10007A   21040.83035894 -.00000062  00000-0  00000+0 0  9996
2 36400  65.9398  19.9652 0026349 344.2515 208.3853  2.13105115 85185
COSMOS 2461 (735)       
1 36401U 10007B   21040.39130479 -.00000060  00000-0  00000-0 0  9992
2 36401  65.9354  19.9427 0020526 359.6371 218.0687  2.13103800 85181
COSMOS 2460 (732)       
1 36402U 10007C   21040.65248884 -.00000061  00000-0  00000+0 0  9992
2 36402  65.9227  19.8958 0002520 289.2665  72.3467  2.13106620 85198
COSMOS 2464 (736)       
1 37139U 10041C   21040.39992781  .00000078  00000-0  00000-0 0  9999
2 37139  64.0952 257.6146 0029012  13.0578 103.0896  2.13100818 81246
COSMOS 2471 (701K)      
1 37372U 11009A   21040.67652608 -.00000061  00000-0  00000+0 0  9997
2 37372  65.9180  19.8318 0010134 236.9299 306.7193  2.13107441 77468
COSMOS 2476 (744)       
1 37867U 11064A   21040.43887027 -.00000032  00000-0  00000-0 0  9995
2 37867  64.5529 139.1350 0019855 235.0197 122.6223  2.13101883 72173
COSMOS 2477 (745)       
1 37868U 11064B   21040.32048516 -.00000033  00000-0  00000-0 0  9997
2 37868  64.5614 139.1983 0017445 235.8394 209.3704  2.13101677 72135
COSMOS 2475 (743)       
1 37869U 11064C   21040.64252397 -.00000031  00000-0  00000+0 0  9994
2 37869  64.5689 139.1913 0021165 257.4274  32.4315  2.13101789 72140
COSMOS 2485 (747)       
1 39155U 13019A   21040.43393566 -.00000032  00000-0  00000-0 0  9999
2 39155  64.7202 139.4556 0020543 230.7889 167.5757  2.13101811 60653
COSMOS 2492 (754)       
1 39620U 14012A   21040.45938030 -.00000061  00000-0  00000-0 0  9995
2 39620  65.8110  19.6509 0015327 318.0243 134.7813  2.13103311 53608
COSMOS 2500 (755)       
1 40001U 14032A   21040.38037405 -.00000060  00000-0  00000-0 0  9999
2 40001  65.7509  19.5512 0007106 225.6920  26.4335  2.13102545 51813
COSMOS 2501 (702K)      
1 40315U 14075A   21040.74261035  .00000073  00000-0  00000+0 0  9994
2 40315  63.8067 258.4599 0015494 207.8035 128.1042  2.13101103 48221
COSMOS 2514 (751)       
1 41330U 16008A   21040.39257226 -.00000061  00000-0  00000-0 0  9997
2 41330  65.5538  19.3658 0011084 227.1460 217.2429  2.13102992 38987
COSMOS 2516 (753)       
1 41554U 16032A   21040.83687281  .00000073  00000-0  00000+0 0  9990
2 41554  64.0272 258.6003 0010946 215.6732 102.0623  2.13106514 36592
COSMOS 2522 (752)       
1 42939U 17055A   21040.36983759  .00000077  00000-0  00000-0 0  9996
2 42939  64.2669 258.8612 0005512 254.7284 290.1532  2.13102085 26348
COSMOS 2527 (756)       
1 43508U 18053A   21040.55250521 -.00000031  00000-0  00000+0 0  9993
2 43508  64.8854 139.3503 0007434 225.1849 131.8329  2.13102598 20639
COSMOS 2529 (757)       
1 43687U 18086A   21040.65020691  .00000075  00000-0  00000+0 0  9998
2 43687  64.4799 259.0340 0008344 280.9014  74.6288  2.13102184 17651
COSMOS 2534 (758)       
1 44299U 19030A   21040.88246883  .00000074  00000-0  00000+0 0  9995
2 44299  64.5479 258.8651 0011797 299.0644   9.5430  2.13101979 13300
COSMOS 2544 (759)       
1 44850U 19088A   21040.84557750 -.00000029  00000-0  00000+0 0  9996
2 44850  64.8690 139.2020 0010982 260.2438   5.4779  2.13102356  9080
COSMOS 2545 (760)       
1 45358U 20018A   21040.45050353 -.00000062  00000-0  00000-0 0  9997
2 45358  64.8853  20.3803 0011211 258.2204 274.5962  2.13102815  7023
